CCSDS_OMM_VERS = 2.0
CREATION_DATE  = 
ORIGINATOR     = 

OBJECT_NAME    = STARLINK-36645
OBJECT_ID      = 2026-025Q
CENTER_NAME    = EARTH
REF_FRAME      = TEME
TIME_SYSTEM    = UTC
MEAN_ELEMENT_THEORY = SGP/SGP4

EPOCH          = 2026-02-15T04:00:01.999584
MEAN_MOTION    = 16.04154258
ECCENTRICITY   = .0001518
INCLINATION    = 97.2787
RA_OF_ASC_NODE = 156.4217
ARG_OF_PERICENTER = 57.6394
MEAN_ANOMALY   = 190.5780

EPHEMERIS_TYPE = 0
CLASSIFICATION_TYPE = U
NORAD_CAT_ID   = 67707
ELEMENT_SET_NO = 999
REV_AT_EPOCH   = 183
BSTAR          = -.18983E-2
MEAN_MOTION_DOT = -.12183E-1
MEAN_MOTION_DDOT = .49554E-3

CCSDS_OMM_VERS = 2.0
CREATION_DATE  = 
ORIGINATOR     = 

OBJECT_NAME    = STARLINK-36287
OBJECT_ID      = 2026-025R
CENTER_NAME    = EARTH
REF_FRAME      = TEME
TIME_SYSTEM    = UTC
MEAN_ELEMENT_THEORY = SGP/SGP4

EPOCH          = 2026-02-15T04:00:01.999584
MEAN_MOTION    = 16.04746529
ECCENTRICITY   = .0001478
INCLINATION    = 97.2782
RA_OF_ASC_NODE = 156.4256
ARG_OF_PERICENTER = 50.7976
MEAN_ANOMALY   = 206.2733

EPHEMERIS_TYPE = 0
CLASSIFICATION_TYPE = U
NORAD_CAT_ID   = 67708
ELEMENT_SET_NO = 999
REV_AT_EPOCH   = 238
BSTAR          = -.16878E-2
MEAN_MOTION_DOT = -.1123213E-1
MEAN_MOTION_DDOT = .42943E-3

CCSDS_OMM_VERS = 2.0
CREATION_DATE  = 
ORIGINATOR     = 

OBJECT_NAME    = STARLINK-36698
OBJECT_ID      = 2026-025S
CENTER_NAME    = EARTH
REF_FRAME      = TEME
TIME_SYSTEM    = UTC
MEAN_ELEMENT_THEORY = SGP/SGP4

EPOCH          = 2026-02-15T04:00:01.999584
MEAN_MOTION    = 16.05473123
ECCENTRICITY   = .0001468
INCLINATION    = 97.2779
RA_OF_ASC_NODE = 156.4304
ARG_OF_PERICENTER = 59.6022
MEAN_ANOMALY   = 208.0701

EPHEMERIS_TYPE = 0
CLASSIFICATION_TYPE = U
NORAD_CAT_ID   = 67709
ELEMENT_SET_NO = 999
REV_AT_EPOCH   = 222
BSTAR          = -.16051E-2
MEAN_MOTION_DOT = -.1116188E-1
MEAN_MOTION_DDOT = .42822E-3

CCSDS_OMM_VERS = 2.0
CREATION_DATE  = 
ORIGINATOR     = 

OBJECT_NAME    = STARLINK-36344
OBJECT_ID      = 2026-025T
CENTER_NAME    = EARTH
REF_FRAME      = TEME
TIME_SYSTEM    = UTC
MEAN_ELEMENT_THEORY = SGP/SGP4

EPOCH          = 2026-02-15T04:00:01.999584
MEAN_MOTION    = 16.05017405
ECCENTRICITY   = .0001579
INCLINATION    = 97.2781
RA_OF_ASC_NODE = 156.4275
ARG_OF_PERICENTER = 56.9175
MEAN_ANOMALY   = 204.1734

EPHEMERIS_TYPE = 0
CLASSIFICATION_TYPE = U
NORAD_CAT_ID   = 67710
ELEMENT_SET_NO = 999
REV_AT_EPOCH   = 238
BSTAR          = -.16703E-2
MEAN_MOTION_DOT = -.1129798E-1
MEAN_MOTION_DDOT = .43551E-3

CCSDS_OMM_VERS = 2.0
CREATION_DATE  = 
ORIGINATOR     = 

OBJECT_NAME    = STARLINK-36687
OBJECT_ID      = 2026-025U
CENTER_NAME    = EARTH
REF_FRAME      = TEME
TIME_SYSTEM    = UTC
MEAN_ELEMENT_THEORY = SGP/SGP4

EPOCH          = 2026-02-15T04:00:01.999584
MEAN_MOTION    = 16.05225929
ECCENTRICITY   = .0001493
INCLINATION    = 97.2781
RA_OF_ASC_NODE = 156.4288
ARG_OF_PERICENTER = 58.8095
MEAN_ANOMALY   = 205.3778

EPHEMERIS_TYPE = 0
CLASSIFICATION_TYPE = U
NORAD_CAT_ID   = 67711
ELEMENT_SET_NO = 999
REV_AT_EPOCH   = 238
BSTAR          = -.16277E-2
MEAN_MOTION_DOT = -.1115095E-1
MEAN_MOTION_DDOT = .42616E-3

CCSDS_OMM_VERS = 2.0
CREATION_DATE  = 
ORIGINATOR     = 

OBJECT_NAME    = STARLINK-36705
OBJECT_ID      = 2026-025V
CENTER_NAME    = EARTH
REF_FRAME      = TEME
TIME_SYSTEM    = UTC
MEAN_ELEMENT_THEORY = SGP/SGP4

EPOCH          = 2026-02-15T04:00:01.999584
MEAN_MOTION    = 16.05729420
ECCENTRICITY   = .0001457
INCLINATION    = 97.2774
RA_OF_ASC_NODE = 156.4318
ARG_OF_PERICENTER = 55.2496
MEAN_ANOMALY   = 216.0330

EPHEMERIS_TYPE = 0
CLASSIFICATION_TYPE = U
NORAD_CAT_ID   = 67712
ELEMENT_SET_NO = 999
REV_AT_EPOCH   = 228
BSTAR          = -.1581E-2
MEAN_MOTION_DOT = -.1116728E-1
MEAN_MOTION_DDOT = .42994E-3

CCSDS_OMM_VERS = 2.0
CREATION_DATE  = 
ORIGINATOR     = 

OBJECT_NAME    = STARLINK-36708
OBJECT_ID      = 2026-025W
CENTER_NAME    = EARTH
REF_FRAME      = TEME
TIME_SYSTEM    = UTC
MEAN_ELEMENT_THEORY = SGP/SGP4

EPOCH          = 2026-02-15T04:00:01.999584
MEAN_MOTION    = 16.06326307
ECCENTRICITY   = .0001461
INCLINATION    = 97.2775
RA_OF_ASC_NODE = 156.4357
ARG_OF_PERICENTER = 61.9534
MEAN_ANOMALY   = 218.0514

EPHEMERIS_TYPE = 0
CLASSIFICATION_TYPE = U
NORAD_CAT_ID   = 67713
ELEMENT_SET_NO = 999
REV_AT_EPOCH   = 228
BSTAR          = -.14804E-2
MEAN_MOTION_DOT = -.1084899E-1
MEAN_MOTION_DDOT = .41054E-3

CCSDS_OMM_VERS = 2.0
CREATION_DATE  = 
ORIGINATOR     = 

OBJECT_NAME    = STARLINK-36702
OBJECT_ID      = 2026-025X
CENTER_NAME    = EARTH
REF_FRAME      = TEME
TIME_SYSTEM    = UTC
MEAN_ELEMENT_THEORY = SGP/SGP4

EPOCH          = 2026-02-15T04:00:01.999584
MEAN_MOTION    = 16.06157768
ECCENTRICITY   = .0001466
INCLINATION    = 97.2774
RA_OF_ASC_NODE = 156.4344
ARG_OF_PERICENTER = 55.5294
MEAN_ANOMALY   = 221.8254

EPHEMERIS_TYPE = 0
CLASSIFICATION_TYPE = U
NORAD_CAT_ID   = 67714
ELEMENT_SET_NO = 999
REV_AT_EPOCH   = 201
BSTAR          = -.15477E-2
MEAN_MOTION_DOT = -.1122164E-1
MEAN_MOTION_DDOT = .43609E-3

CCSDS_OMM_VERS = 2.0
CREATION_DATE  = 
ORIGINATOR     = 

OBJECT_NAME    = STARLINK-36718
OBJECT_ID      = 2026-025Y
CENTER_NAME    = EARTH
REF_FRAME      = TEME
TIME_SYSTEM    = UTC
MEAN_ELEMENT_THEORY = SGP/SGP4

EPOCH          = 2026-02-15T04:00:01.999584
MEAN_MOTION    = 16.06740901
ECCENTRICITY   = .0001368
INCLINATION    = 97.2774
RA_OF_ASC_NODE = 156.4384
ARG_OF_PERICENTER = 56.2553
MEAN_ANOMALY   = 229.9277

EPHEMERIS_TYPE = 0
CLASSIFICATION_TYPE = U
NORAD_CAT_ID   = 67715
ELEMENT_SET_NO = 999
REV_AT_EPOCH   = 222
BSTAR          = -.13769E-2
MEAN_MOTION_DOT = -.1035563E-1
MEAN_MOTION_DDOT = .37863E-3

CCSDS_OMM_VERS = 2.0
CREATION_DATE  = 
ORIGINATOR     = 

OBJECT_NAME    = STARLINK-36715
OBJECT_ID      = 2026-025Z
CENTER_NAME    = EARTH
REF_FRAME      = TEME
TIME_SYSTEM    = UTC
MEAN_ELEMENT_THEORY = SGP/SGP4

EPOCH          = 2026-02-15T04:00:01.999584
MEAN_MOTION    = 16.06563137
ECCENTRICITY   = .0001466
INCLINATION    = 97.2773
RA_OF_ASC_NODE = 156.4373
ARG_OF_PERICENTER = 63.3873
MEAN_ANOMALY   = 219.8841

EPHEMERIS_TYPE = 0
CLASSIFICATION_TYPE = U
NORAD_CAT_ID   = 67716
ELEMENT_SET_NO = 999
REV_AT_EPOCH   = 228
BSTAR          = -.14801E-2
MEAN_MOTION_DOT = -.1100394E-1
MEAN_MOTION_DDOT = .42268E-3

CCSDS_OMM_VERS = 2.0
CREATION_DATE  = 
ORIGINATOR     = 

OBJECT_NAME    = STARLINK-36385
OBJECT_ID      = 2026-025AA
CENTER_NAME    = EARTH
REF_FRAME      = TEME
TIME_SYSTEM    = UTC
MEAN_ELEMENT_THEORY = SGP/SGP4

EPOCH          = 2026-02-15T04:00:01.999584
MEAN_MOTION    = 16.05921650
ECCENTRICITY   = .0001443
INCLINATION    = 97.2778
RA_OF_ASC_NODE = 156.4333
ARG_OF_PERICENTER = 56.7698
MEAN_ANOMALY   = 217.4401

EPHEMERIS_TYPE = 0
CLASSIFICATION_TYPE = U
NORAD_CAT_ID   = 67717
ELEMENT_SET_NO = 999
REV_AT_EPOCH   = 228
BSTAR          = -.15117E-2
MEAN_MOTION_DOT = -.1080696E-1
MEAN_MOTION_DDOT = .40559E-3

CCSDS_OMM_VERS = 2.0
CREATION_DATE  = 
ORIGINATOR     = 

OBJECT_NAME    = CZ-2F DEB
OBJECT_ID      = 2026-024E
CENTER_NAME    = EARTH
REF_FRAME      = TEME
TIME_SYSTEM    = UTC
MEAN_ELEMENT_THEORY = SGP/SGP4

EPOCH          = 2026-02-15T04:48:34.469280
MEAN_MOTION    = 15.15568372
ECCENTRICITY   = .0264779
INCLINATION    = 50.3144
RA_OF_ASC_NODE = 128.4522
ARG_OF_PERICENTER = 191.6504
MEAN_ANOMALY   = 167.8246

EPHEMERIS_TYPE = 0
CLASSIFICATION_TYPE = U
NORAD_CAT_ID   = 67718
ELEMENT_SET_NO = 999
REV_AT_EPOCH   = 121
BSTAR          = .52863E-2
MEAN_MOTION_DOT = .260556E-2
MEAN_MOTION_DDOT = 0

CCSDS_OMM_VERS = 2.0
CREATION_DATE  = 
ORIGINATOR     = 

OBJECT_NAME    = CZ-2F DEB
OBJECT_ID      = 2026-024F
CENTER_NAME    = EARTH
REF_FRAME      = TEME
TIME_SYSTEM    = UTC
MEAN_ELEMENT_THEORY = SGP/SGP4

EPOCH          = 2026-02-15T04:00:12.217248
MEAN_MOTION    = 14.96426238
ECCENTRICITY   = .033694
INCLINATION    = 49.7909
RA_OF_ASC_NODE = 129.7326
ARG_OF_PERICENTER = 181.2462
MEAN_ANOMALY   = 178.7673

EPHEMERIS_TYPE = 0
CLASSIFICATION_TYPE = U
NORAD_CAT_ID   = 67719
ELEMENT_SET_NO = 999
REV_AT_EPOCH   = 86
BSTAR          = .49205E-2
MEAN_MOTION_DOT = .190261E-2
MEAN_MOTION_DDOT = 0

CCSDS_OMM_VERS = 2.0
CREATION_DATE  = 
ORIGINATOR     = 

OBJECT_NAME    = CZ-2F DEB
OBJECT_ID      = 2026-024G
CENTER_NAME    = EARTH
REF_FRAME      = TEME
TIME_SYSTEM    = UTC
MEAN_ELEMENT_THEORY = SGP/SGP4

EPOCH          = 2026-02-15T04:20:46.916448
MEAN_MOTION    = 14.93761218
ECCENTRICITY   = .0347726
INCLINATION    = 49.8306
RA_OF_ASC_NODE = 129.8110
ARG_OF_PERICENTER = 177.9648
MEAN_ANOMALY   = 182.2802

EPHEMERIS_TYPE = 0
CLASSIFICATION_TYPE = U
NORAD_CAT_ID   = 67720
ELEMENT_SET_NO = 999
REV_AT_EPOCH   = 118
BSTAR          = .49645E-2
MEAN_MOTION_DOT = .187136E-2
MEAN_MOTION_DDOT = 0

CCSDS_OMM_VERS = 2.0
CREATION_DATE  = 
ORIGINATOR     = 

OBJECT_NAME    = 2026-027A
OBJECT_ID      = 2026-027A
CENTER_NAME    = EARTH
REF_FRAME      = TEME
TIME_SYSTEM    = UTC
MEAN_ELEMENT_THEORY = SGP/SGP4

EPOCH          = 2026-02-15T03:38:14.419392
MEAN_MOTION    = 15.17256774
ECCENTRICITY   = .0009168
INCLINATION    = 97.4874
RA_OF_ASC_NODE = 175.4145
ARG_OF_PERICENTER = 279.4523
MEAN_ANOMALY   = 80.5673

EPHEMERIS_TYPE = 0
CLASSIFICATION_TYPE = U
NORAD_CAT_ID   = 67746
ELEMENT_SET_NO = 999
REV_AT_EPOCH   = 44
BSTAR          = .39558E-3
MEAN_MOTION_DOT = .7817E-4
MEAN_MOTION_DDOT = 0

